STARLINK-31290          
1 59085U 24041M   26068.01757978 -.00001508  00000+0 -45297-4 0  9990
2 59085  43.0032 300.2318 0001282 262.0097  98.0610 15.27576822114473
YAOGAN-43 01D           
1 60461U 24148D   26068.43560480  .00010676  00000+0  37766-3 0  9999
2 60461  35.0010  61.7102 0002556 326.2473  33.8080 15.28369377 87008
